BEIDOU-3S IGSO-1S       
1 40549U 15019A   26183.80025122 -.00000190  00000+0  00000+0 0  9997
2 40549  49.1798 295.2769 0076860 219.1125 144.2493  1.00680073 41232
NAVSTAR 74 (USA 262)    
1 40730U 15033A   26185.67196386 -.00000008  00000+0  00000+0 0  9991
2 40730  53.9691 266.3653 0115213  30.2668 330.4655  2.00555354 80348
BEIDOU-3S M2S           
1 40748U 15037A   26186.57966338 -.00000059  00000+0  00000+0 0  9992
2 40748  54.8530 301.4135 0009146 257.7205 102.2021  1.86232493 74462
BEIDOU-3S M1S           
1 40749U 15037B   26185.17416965 -.00000058  00000+0  00000+0 0  9993
2 40749  54.8513 301.4491 0002995  63.1742 296.8797  1.86254939 74446
GSAT0206 (GALILEO 10)   
1 40890U 15045B   26184.88161184  .00000074  00000+0  00000+0 0  9993
2 40890  54.9411 221.1433 0001957 327.0241  33.0412  1.70473649 67326
BEIDOU-3S IGSO-2S       
1 40938U 15053A   26185.85304073 -.00000105  00000+0  00000+0 0  9995
2 40938  49.1939 258.5724 0065737 193.1388 232.3570  1.00255661 39533
NAVSTAR 75 (USA 265)    
1 41019U 15062A   26186.22585977 -.00000055  00000+0  00000+0 0  9996
2 41019  56.9715  30.1167 0112456 230.9379 128.1075  2.00567031 78193
GSAT-15                 
1 41028U 15065A   26186.45267740 -.00000244  00000+0  00000+0 0  9999
2 41028   0.0374 242.1269 0004101 203.6299  94.1478  1.00271798 38980
GSAT0209 (GALILEO 12)   
1 41174U 15079A   26185.63643029  .00000000  00000+0  00000+0 0  9992
2 41174  55.8369 100.7834 0005067 348.6925  11.3144  1.70473787 65079
GSAT0208 (GALILEO 11)   
1 41175U 15079B   26182.92381336 -.00000013  00000+0  00000+0 0  9997
2 41175  55.8336 100.8547 0004614 354.4374   5.5610  1.70473736 65444
IRNSS-1E                
1 41241U 16003A   26180.82733131 -.00000310  00000+0  00000+0 0  9990
2 41241  33.2608  59.5670 0019200 178.7998  89.1855  1.00272765 38208
NAVSTAR 76 (USA 266)    
1 41328U 16007A   26186.31768813 -.00000009  00000+0  00000+0 0  9990
2 41328  55.5338  88.7408 0096680 247.6311 111.3824  2.00576020 76204
COSMOS 2514 [GLONASS-M] 
1 41330U 16008A   26186.58632897 -.00000044  00000+0  00000+0 0  9994
2 41330  65.0096 312.3755 0011980 200.0780 159.8882  2.13102617 81015
BEIDOU-2 IGSO-6         
1 41434U 16021A   26177.11016981 -.00000145  00000+0  00000+0 0  9995
2 41434  60.2385  37.9495 0057558 231.0163 137.2672  1.00258926 37578
IRNSS-1G                
1 41469U 16027A   26186.53111925 -.00000322  00000+0  00000+0 0  9996
2 41469   5.2398  97.0522 0005816   7.4920 139.7864  1.00278117 37364
GSAT0211 (GALILEO 14)   
1 41549U 16030A   26185.39390706  .00000074  00000+0  00000+0 0  9991
2 41549  55.0914 221.2214 0003120 320.4697  39.5831  1.70473887 62967
GSAT0210 (GALILEO 13)   
1 41550U 16030B   26184.47800542  .00000074  00000+0  00000+0 0  9995
2 41550  55.0896 221.2446 0008960 258.8551 101.1239  1.70473811 62948
BEIDOU-2 G7             
1 41586U 16037A   26186.63870384 -.00000340  00000+0  00000+0 0  9999
2 41586   1.7629  69.4535 0006631   5.1729 189.4425  1.00267673  7072
EUTELSAT 117 WEST B     
1 41589U 16038B   26186.41096358  .00000002  00000+0  00000+0 0  9994
2 41589   0.0083 160.0969 0000176  18.6082 135.6412  1.00270292 36846
GSAT0207 (GALILEO 15)   
1 41859U 16069A   26177.71738502 -.00000038  00000+0  00000+0 0  9995
2 41859  55.5042 100.8225 0005006 333.0982  26.8500  1.70473700 59562
GSAT0212 (GALILEO 16)   
1 41860U 16069B   26185.78306338  .00000000  00000+0  00000+0 0  9999
2 41860  55.5064 100.5945 0004448   2.8841 357.1371  1.70473848 59950
GSAT0213 (GALILEO 17)   
1 41861U 16069C   26179.11118849 -.00000034  00000+0  00000+0 0  9996
2 41861  55.5047 100.7870 0004537 315.9585  43.9839  1.70474290 59707
GSAT0214 (GALILEO 18)   
1 41862U 16069D   26186.29651379  .00000000  00000+0  00000+0 0  9996
2 41862  55.5073 100.5810 0003670 327.9107  32.0866  1.70473861 59958
SES-15                  
1 42709U 17026A   26186.40853690  .00000073  00000+0  00000+0 0  9994
2 42709   0.0235 326.5081 0001025 175.8298 158.9945  1.00273257  7619
QZS-2 (MICHIBIKI-2)     
1 42738U 17028A   26186.44055433 -.00000105  00000+0  00000+0 0  9998
2 42738  39.3999 242.8847 0758397 269.4808  71.9203  1.00279241  7802
QZS-3 (MICHIBIKI-3)     
1 42917U 17048A   26186.53059925 -.00000335  00000+0  00000+0 0  9994
2 42917   0.0799 130.0016 0002078 334.4076 137.1144  1.00267041 32440
COSMOS 2522 [GLONASS-M] 
1 42939U 17055A   26186.42400866  .00000103  00000+0  00000+0 0  9990
2 42939  64.0803 191.2636 0010926 240.7321 119.1846  2.13102028 68367
QZS-4 (MICHIBIKI-4)     
1 42965U 17062A   26186.31716735 -.00000308  00000+0  00000+0 0  9998
2 42965  40.0986 343.2563 0747050 268.3572 284.3863  1.00293782 31984
BEIDOU-3 M1             
1 43001U 17069A   26184.24174458 -.00000036  00000+0  00000+0 0  9995
2 43001  56.7055  62.5561 0009680 326.7179  33.2911  1.86231596 58903
BEIDOU-3 M2             
1 43002U 17069B   26186.32835574 -.00000037  00000+0  00000+0 0  9991
2 43002  56.7067  62.5232 0008599 354.4335   5.6244  1.86231044 58935
GSAT0215 (GALILEO 19)   
1 43055U 17079A   26185.61298967  .00000074  00000+0  00000+0 0  9990
2 43055  55.0696 221.0270 0003549 263.9168  96.1170  1.70474500 53280
